     2.100          NAVIGATION                              RINEX VERSION / TYPE
fic2rin                                 03/20/2011 00:13:31 PGM / RUN BY / DATE
                                                            END OF HEADER
19 11  3 19 12  0  0.0 -.121723860502D-03 -.375166564481D-11  .000000000000D+00
     .820000000000D+02 -.989375000000D+02  .466555148180D-08 -.112662586225D+01
    -.528618693352D-05  .711285346188D-02  .984221696854D-05  .515363543892D+04
     .561600000000D+06  .745058059692D-08 -.580857018615D+00 -.223517417908D-06
     .958715919921D+00  .187656250000D+03 -.106271840592D-01 -.818355516363D-08
    -.530022077547D-09  .100000000000D+01  .162700000000D+04  .000000000000D+00
     .240000000000D+01  .000000000000D+00 -.149011611938D-07  .820000000000D+02
     .554406000000D+06  .400000000000D+01
21 11  3 19 12  0  0.0 -.131453387439D-03 -.261479726760D-11  .000000000000D+00
     .440000000000D+02  .795000000000D+02  .494913472276D-08  .220413722410D+01
     .395812094212D-05  .174532157835D-01  .148452818394D-04  .515379087257D+04
     .561600000000D+06 -.271946191788D-06  .393005804418D+00 -.290572643280D-06
     .932370438891D+00  .780625000000D+02 -.239253673268D+01 -.814141055100D-08
     .389301930274D-09  .100000000000D+01  .162700000000D+04  .000000000000D+00
     .240000000000D+01  .000000000000D+00 -.116415321827D-07  .440000000000D+02
     .554406000000D+06  .400000000000D+01
22 11  3 19 12  0  0.0  .151532236487D-03 -.568434188608D-12  .000000000000D+00
     .630000000000D+02  .470937500000D+02  .591774649789D-08  .118126794741D+00
     .253319740295D-05  .541878014337D-02  .192411243916D-05  .515370473099D+04
     .561600000000D+06 -.614672899246D-07  .145204887589D+01  .186264514923D-08
     .931152274321D+00  .325656250000D+03 -.196248763202D+01 -.922752722069D-08
     .166078346401D-09  .100000000000D+01  .162700000000D+04  .000000000000D+00
     .240000000000D+01  .000000000000D+00 -.172294676304D-07  .630000000000D+02
     .554406000000D+06  .400000000000D+01
23 11  3 19 12  0  0.0  .319102779031D-03 -.250111042988D-11  .000000000000D+00
     .570000000000D+02 -.111093750000D+03  .442054127614D-08 -.155996494424D+01
    -.594556331635D-05  .704611267429D-02  .863894820213D-05  .515357702446D+04
     .561600000000D+06 -.949949026108D-07  .248914288773D+01 -.124797224998D-06
     .965061815704D+00  .215468750000D+03  .312896129371D+01 -.809319425688D-08
    -.505378193887D-09  .100000000000D+01  .162700000000D+04  .000000000000D+00
     .240000000000D+01  .000000000000D+00 -.200234353542D-07  .570000000000D+02
     .554406000000D+06  .400000000000D+01
24 11  3 19 12  0  0.0  .374563504010D-03  .318323145621D-11  .000000000000D+00
     .960000000000D+02  .714062500000D+02  .459447709270D-08 -.227363555542D+01
     .369548797607D-05  .595725909807D-02  .131614506245D-04  .515373059654D+04
     .561600000000D+06 -.154599547386D-06  .436613398403D+00 -.335276126862D-07
     .948952142797D+00  .120562500000D+03 -.301129627783D+00 -.801926260590D-08
     .366800993019D-09  .100000000000D+01  .162700000000D+04  .000000000000D+00
     .340000000000D+01  .000000000000D+00 -.139698386192D-08  .960000000000D+02
     .554406000000D+06  .400000000000D+01
25 11  3 19 12  0  0.0 -.712238252163D-04 -.682121026330D-12  .000000000000D+00
     .830000000000D+02  .455625000000D+02  .510806991447D-08  .126320675267D+01
     .227801501751D-05  .526459305547D-03  .286661088467D-05  .515367504692D+04
     .561600000000D+06  .000000000000D+00 -.172510533249D+01  .167638063431D-07
     .962729084571D+00  .322218750000D+03  .888310285346D+00 -.866607526253D-08
     .361443627006D-09  .100000000000D+01  .162700000000D+04  .000000000000D+00
     .240000000000D+01  .000000000000D+00  .465661287308D-08  .830000000000D+02
     .554406000000D+06  .400000000000D+01
26 11  3 19 12  0  0.0 -.149225350469D-03 -.101181285572D-10  .000000000000D+00
     .700000000000D+02 -.904687500000D+02  .381480175895D-08 -.188445791064D+01
    -.470317900181D-05  .204118606634D-01  .982359051704D-05  .515364288521D+04
     .561600000000D+06  .342726707458D-06  .255261210208D+01 -.372529029846D-08
     .987998349434D+00  .197968750000D+03  .112917143187D+01 -.752709924818D-08
    -.516450083648D-09  .100000000000D+01  .162700000000D+04  .000000000000D+00
     .240000000000D+01  .000000000000D+00 -.651925802231D-08  .700000000000D+02
     .554406000000D+06  .400000000000D+01
27 11  3 19 12  0  0.0  .247085466981D-03  .375166564481D-11  .000000000000D+00
     .190000000000D+02  .571875000000D+02  .371336896244D-08 -.875506868741D+00
     .291690230370D-05  .217129463563D-01  .149738043547D-04  .515370691299D+04
     .561600000000D+06 -.340864062309D-06 -.280534367897D+01  .160187482834D-06
     .980947479280D+00  .111750000000D+03 -.127670627690D+01 -.796390315710D-08
     .566809324169D-09  .100000000000D+01  .162700000000D+04  .000000000000D+00
     .240000000000D+01  .000000000000D+00 -.419095158577D-08  .190000000000D+02
     .554406000000D+06  .400000000000D+01
28 11  3 19 12  0  0.0  .261263921857D-04  .227373675443D-11  .000000000000D+00
     .740000000000D+02  .335000000000D+02  .487020286350D-08  .208424656855D+00
     .175461173058D-05  .169605854899D-01  .339001417160D-05  .515368554306D+04
     .561600000000D+06 -.216066837311D-06 -.167097081261D+01  .119209289551D-06
     .973270336822D+00  .322937500000D+03 -.189631307253D+01 -.876072206210D-08
     .205722854897D-09  .100000000000D+01  .162700000000D+04  .000000000000D+00
     .340000000000D+01  .000000000000D+00 -.107102096081D-07  .740000000000D+02
     .554406000000D+06  .400000000000D+01
30 11  3 19 12  0  0.0  .330357346684D-03  .295585778076D-11  .000000000000D+00
     .580000000000D+02  .490312500000D+02  .519914513669D-08 -.668139072183D+00
     .269524753094D-05  .125859574182D-01  .367686152458D-05  .515364389420D+04
     .561600000000D+06 -.175088644028D-06 -.175410655842D+01  .465661287308D-07
     .959362403901D+00  .310625000000D+03  .151888646790D+01 -.886536927822D-08
     .433589489314D-09  .100000000000D+01  .162700000000D+04  .000000000000D+00
     .340000000000D+01  .000000000000D+00 -.791624188423D-08  .580000000000D+02
     .554406000000D+06  .400000000000D+01
31 11  3 19 12  0  0.0  .551044940948D-04  .488853402203D-11  .000000000000D+00
     .490000000000D+02  .460937500000D+02  .369408244479D-08  .299733572814D+01
     .253692269325D-05  .783372798469D-02  .147260725498D-04  .515363032150D+04
     .561600000000D+06  .949949026108D-07 -.274972392127D+01  .894069671631D-07
     .979556883482D+00  .104218750000D+03 -.976371336940D+00 -.753709966474D-08
     .434303804782D-09  .100000000000D+01  .162700000000D+04  .000000000000D+00
     .240000000000D+01  .000000000000D+00 -.130385160446D-07  .490000000000D+02
     .554406000000D+06  .400000000000D+01
32 11  3 19 12  0  0.0 -.218074768782D-03 -.761701812735D-11  .000000000000D+00
     .960000000000D+02  .384375000000D+02  .510092675979D-08 -.255771386065D+01
     .207312405109D-05  .122251278954D-01  .200979411602D-05  .515371420479D+04
     .561600000000D+06 -.484287738800D-07  .151728767692D+01  .238418579102D-06
     .955314769975D+00  .336312500000D+03 -.810581734909D+00 -.850249702027D-08
     .112861844006D-09  .100000000000D+01  .162700000000D+04  .000000000000D+00
     .340000000000D+01  .000000000000D+00 -.325962901115D-08  .960000000000D+02
     .554406000000D+06  .400000000000D+01
 6 11  3 19 11 59 44.0 -.900402665138D-04 -.125055521494D-09  .000000000000D+00
     .000000000000D+00 -.111218750000D+03  .538879589355D-08  .439729997617D+00
    -.590085983276D-05  .659006054047D-02  .806152820587D-05  .515365112877D+04
     .561584000000D+06  .707805156708D-07 -.716639594641D+00 -.128522515297D-06
     .935683294416D+00  .213343750000D+03 -.841856563756D+00 -.872714923508D-08
    -.651812864908D-09  .100000000000D+01  .162700000000D+04  .000000000000D+00
     .240000000000D+01  .000000000000D+00 -.465661287308D-08  .000000000000D+00
     .555126000000D+06  .400000000000D+01
 2 11  3 19 11 59 44.0  .325935427099D-03  .193267624127D-11  .000000000000D+00
     .900000000000D+01  .671562500000D+02  .482055793844D-08 -.164561843205D+01
     .344775617123D-05  .101005485049D-01  .129491090775D-04  .515373401070D+04
     .561584000000D+06 -.242143869400D-07  .366736504847D+00 -.121071934700D-06
     .939680864360D+00  .119781250000D+03 -.305265813311D+01 -.811998108695D-08
     .415374444870D-09  .100000000000D+01  .162700000000D+04  .000000000000D+00
     .240000000000D+01  .000000000000D+00 -.172294676304D-07  .900000000000D+01
     .557196000000D+06  .400000000000D+01
16 11  3 19 11 59 44.0 -.158803537488D-03 -.284217094304D-11  .000000000000D+00
     .120000000000D+02  .359062500000D+02  .478662795370D-08  .646392395558D+00
     .189058482647D-05  .628277915530D-02  .307708978653D-05  .515375914001D+04
     .561584000000D+06  .800937414169D-07 -.167829779246D+01  .931322574615D-08
     .974991433610D+00  .324687500000D+03 -.157204903232D+00 -.849749681199D-08
     .275725770799D-09  .100000000000D+01  .162700000000D+04  .000000000000D+00
     .240000000000D+01  .000000000000D+00 -.977888703346D-08  .120000000000D+02
     .557466000000D+06  .400000000000D+01
 5 11  3 19 11 59 44.0 -.131410080940D-03 -.591171556152D-11  .000000000000D+00
     .300000000000D+01  .385000000000D+02  .526486215978D-08  .110107611795D+00
     .200420618057D-05  .226432026830D-02  .211223959923D-05  .515362699127D+04
     .561584000000D+06  .558793544769D-07  .142820578646D+01 -.204890966415D-07
     .954595017206D+00  .332625000000D+03  .277309030714D+00 -.876929384772D-08
     .151792037033D-09  .100000000000D+01  .162700000000D+04  .000000000000D+00
     .240000000000D+01  .000000000000D+00 -.977888703346D-08  .300000000000D+01
     .559956000000D+06  .400000000000D+01
